start=new Date('2021-12-06T00:00:00.000Z').valueOf();
sats=[{"FILE":"3233515","RA_OF_ASC_NODE":"76.9502","MEAN_MOTION_DDOT":"0.0000000000000","EPHEMERIS_TYPE":"0","OBJECT_TYPE":"PAYLOAD","TLE_LINE2":"2 46162  53.0546  76.9502 0001270  72.8527 287.2601 15.06394319 73247","OBJECT_ID":"2020-057AX","INCLINATION":"53.0546","PERIOD":"95.593","RCS_SIZE":"LARGE","CLASSIFICATION_TYPE":"U","ARG_OF_PERICENTER":"72.8527","BSTAR":"0.00016129000000","APOAPSIS":"548.110","PERIAPSIS":"546.351","OBJECT_NAME":"STARLINK-1603","SEMIMAJOR_AXIS":"6925.366","TIME_SYSTEM":"UTC","TLE_LINE1":"1 46162U 20057AX  21339.76288628  .00002121  00000-0  16129-3 0  9996","MEAN_ANOMALY":"287.2601","MEAN_MOTION":"15.06394319","LAUNCH_DATE":"2020-08-18","MEAN_MOTION_DOT":"0.00002121","ELEMENT_SET_NO":"999","REV_AT_EPOCH":"7324","GP_ID":"191168379","NORAD_CAT_ID":"46162","EPOCH":"2021-12-05T18:18:33.374592","REF_FRAME":"TEME","MEAN_ELEMENT_THEORY":"SGP4","SITE":"AFETR","CENTER_NAME":"EARTH","DECAY_DATE":null,"COUNTRY_CODE":"US","ECCENTRICITY":"0.00012700"},{"REV_AT_EPOCH":"7223","GP_ID":"191137992","NORAD_CAT_ID":"46163","MEAN_MOTION":"15.06404274","MEAN_ANOMALY":"287.5412","LAUNCH_DATE":"2020-08-18","ELEMENT_SET_NO":"999","MEAN_MOTION_DOT":"0.00000540","DECAY_DATE":null,"CENTER_NAME":"EARTH","COUNTRY_CODE":"US","ECCENTRICITY":"0.00013290","EPOCH":"2021-12-05T13:29:16.671264","REF_FRAME":"TEME","MEAN_ELEMENT_THEORY":"SGP4","SITE":"AFETR","INCLINATION":"53.0567","OBJECT_ID":"2020-057AY","TLE_LINE2":"2 46163  53.0567  57.8690 0001329  72.5722 287.5412 15.06404274 72239","PERIOD":"95.592","RCS_SIZE":"LARGE","MEAN_MOTION_DDOT":"0.0000000000000","RA_OF_ASC_NODE":"57.8690","FILE":"3233179","EPHEMERIS_TYPE":"0","OBJECT_TYPE":"PAYLOAD","SEMIMAJOR_AXIS":"6925.335","TLE_LINE1":"1 46163U 20057AY  21339.56199851  .00000540  00000-0  55136-4 0  9999","TIME_SYSTEM":"UTC","CLASSIFICATION_TYPE":"U","ARG_OF_PERICENTER":"72.5722","APOAPSIS":"548.121","PERIAPSIS":"546.280","BSTAR":"0.00005513600000","OBJECT_NAME":"STARLINK-1610"},{"SITE":"AFETR","REF_FRAME":"TEME","MEAN_ELEMENT_THEORY":"SGP4","EPOCH":"2021-12-05T16:35:04.086528","COUNTRY_CODE":"US","ECCENTRICITY":"0.00013380","CENTER_NAME":"EARTH","DECAY_DATE":null,"MEAN_MOTION_DOT":"0.00000105","ELEMENT_SET_NO":"999","LAUNCH_DATE":"2020-08-18","MEAN_ANOMALY":"294.0044","MEAN_MOTION":"15.06390194","NORAD_CAT_ID":"46164","GP_ID":"191169381","REV_AT_EPOCH":"7351","OBJECT_NAME":"STARLINK-1612","BSTAR":"0.00002596300000","PERIAPSIS":"546.317","APOAPSIS":"548.170","CLASSIFICATION_TYPE":"U","ARG_OF_PERICENTER":"66.1085","TIME_SYSTEM":"UTC","TLE_LINE1":"1 46164U 20057AZ  21339.69101952  .00000105  00000-0  25963-4 0  9991","SEMIMAJOR_AXIS":"6925.379","OBJECT_TYPE":"PAYLOAD","EPHEMERIS_TYPE":"0","FILE":"3233515","RA_OF_ASC_NODE":"57.2836","MEAN_MOTION_DDOT":"0.0000000000000","RCS_SIZE":"LARGE","PERIOD":"95.593","OBJECT_ID":"2020-057AZ","TLE_LINE2":"2 46164  53.0549  57.2836 0001338  66.1085 294.0044 15.06390194 73518","INCLINATION":"53.0549"},{"MEAN_MOTION":"15.06467058","MEAN_ANOMALY":"270.3058","LAUNCH_DATE":"2020-08-18","ELEMENT_SET_NO":"999","MEAN_MOTION_DOT":"0.00003057","REV_AT_EPOCH":"7170","GP_ID":"191169131","NORAD_CAT_ID":"46165","EPOCH":"2021-12-05T18:26:15.700992","MEAN_ELEMENT_THEORY":"SGP4","REF_FRAME":"TEME","SITE":"AFETR","DECAY_DATE":null,"CENTER_NAME":"EARTH","COUNTRY_CODE":"US","ECCENTRICITY":"0.00015630","MEAN_MOTION_DDOT":"0.0000000000000","RA_OF_ASC_NODE":"96.9306","FILE":"3233515","EPHEMERIS_TYPE":"0","OBJECT_TYPE":"PAYLOAD","INCLINATION":"53.0529","OBJECT_ID":"2020-057BA","TLE_LINE2":"2 46165  53.0529  96.9306 0001563  89.8110 270.3058 15.06467058 71705","PERIOD":"95.588","RCS_SIZE":"LARGE","CLASSIFICATION_TYPE":"U","ARG_OF_PERICENTER":"89.8110","PERIAPSIS":"545.926","APOAPSIS":"548.090","BSTAR":"0.00022362000000","OBJECT_NAME":"STARLINK-1613","SEMIMAJOR_AXIS":"6925.143","TLE_LINE1":"1 46165U 20057BA  21339.76823728  .00003057  00000-0  22362-3 0  9990","TIME_SYSTEM":"UTC"},{"MEAN_ANOMALY":"265.2650","MEAN_MOTION":"15.06398694","MEAN_MOTION_DOT":"-0.00000154","ELEMENT_SET_NO":"999","LAUNCH_DATE":"2020-08-18","GP_ID":"191167879","REV_AT_EPOCH":"7171","NORAD_CAT_ID":"46166","EPOCH":"2021-12-05T19:24:54.447264","SITE":"AFETR","MEAN_ELEMENT_THEORY":"SGP4","REF_FRAME":"TEME","CENTER_NAME":"EARTH","DECAY_DATE":null,"COUNTRY_CODE":"US","ECCENTRICITY":"0.00014710","FILE":"3233515","MEAN_MOTION_DDOT":"0.0000000000000","RA_OF_ASC_NODE":"96.7436","OBJECT_TYPE":"PAYLOAD","EPHEMERIS_TYPE":"0","PERIOD":"95.592","OBJECT_ID":"2020-057BB","TLE_LINE2":"2 46166  53.0546  96.7436 0001471  94.8507 265.2650 15.06398694 71712","INCLINATION":"53.0546","RCS_SIZE":"LARGE","BSTAR":"0.00000854030000","PERIAPSIS":"546.199","APOAPSIS":"548.236","ARG_OF_PERICENTER":"94.8507","CLASSIFICATION_TYPE":"U","OBJECT_NAME":"STARLINK-1615","SEMIMAJOR_AXIS":"6925.353","TIME_SYSTEM":"UTC","TLE_LINE1":"1 46166U 20057BB  21339.80896351 -.00000154  00000-0  85403-5 0  9991"},{"CENTER_NAME":"EARTH","DECAY_DATE":null,"ECCENTRICITY":"0.00011660","COUNTRY_CODE":"US","EPOCH":"2021-12-05T19:46:08.552640","REF_FRAME":"TEME","MEAN_ELEMENT_THEORY":"SGP4","SITE":"AFETR","REV_AT_EPOCH":"7171","GP_ID":"191168630","NORAD_CAT_ID":"46167","MEAN_ANOMALY":"270.4555","MEAN_MOTION":"15.06386471","LAUNCH_DATE":"2020-08-18","MEAN_MOTION_DOT":"-0.00000165","ELEMENT_SET_NO":"999","SEMIMAJOR_AXIS":"6925.390","TIME_SYSTEM":"UTC","TLE_LINE1":"1 46167U 20057BC  21339.82371010 -.00000165  00000-0  77951-5 0  9995","ARG_OF_PERICENTER":"89.6567","CLASSIFICATION_TYPE":"U","BSTAR":"0.00000779510000","PERIAPSIS":"546.448","APOAPSIS":"548.063","OBJECT_NAME":"STARLINK-1626","TLE_LINE2":"2 46167  53.0555  96.6901 0001166  89.6567 270.4555 15.06386471 71710","OBJECT_ID":"2020-057BC","INCLINATION":"53.0555","PERIOD":"95.593","RCS_SIZE":"LARGE","FILE":"3233515","RA_OF_ASC_NODE":"96.6901","MEAN_MOTION_DDOT":"0.0000000000000","EPHEMERIS_TYPE":"0","OBJECT_TYPE":"PAYLOAD"},{"EPOCH":"2021-12-05T22:14:43.671840","SITE":"AFETR","MEAN_ELEMENT_THEORY":"SGP4","REF_FRAME":"TEME","DECAY_DATE":null,"CENTER_NAME":"EARTH","COUNTRY_CODE":"US","ECCENTRICITY":"0.00012620","MEAN_MOTION":"15.06391376","MEAN_ANOMALY":"280.4819","MEAN_MOTION_DOT":"0.00000415","ELEMENT_SET_NO":"999","LAUNCH_DATE":"2020-08-18","GP_ID":"191168881","REV_AT_EPOCH":"7242","NORAD_CAT_ID":"46168","APOAPSIS":"548.114","PERIAPSIS":"546.366","BSTAR":"0.00004673400000","ARG_OF_PERICENTER":"79.6312","CLASSIFICATION_TYPE":"U","OBJECT_NAME":"STARLINK-1627","SEMIMAJOR_AXIS":"6925.375","TLE_LINE1":"1 46168U 20057BD  21339.92689435  .00000415  00000-0  46734-4 0  9991","TIME_SYSTEM":"UTC","MEAN_MOTION_DDOT":"0.0000000000000","RA_OF_ASC_NODE":"46.2170","FILE":"3233515","OBJECT_TYPE":"PAYLOAD","EPHEMERIS_TYPE":"0","PERIOD":"95.593","INCLINATION":"53.0554","TLE_LINE2":"2 46168  53.0554  46.2170 0001262  79.6312 280.4819 15.06391376 72426","OBJECT_ID":"2020-057BD","RCS_SIZE":"LARGE"},{"MEAN_ANOMALY":"267.1383","MEAN_MOTION":"15.05584747","ELEMENT_SET_NO":"999","MEAN_MOTION_DOT":"0.00000300","LAUNCH_DATE":"2020-08-18","GP_ID":"191169632","REV_AT_EPOCH":"7168","NORAD_CAT_ID":"46169","EPOCH":"2021-12-05T19:17:06.722592","SITE":"AFETR","REF_FRAME":"TEME","MEAN_ELEMENT_THEORY":"SGP4","CENTER_NAME":"EARTH","DECAY_DATE":null,"ECCENTRICITY":"0.00014330","COUNTRY_CODE":"US","FILE":"3233515","RA_OF_ASC_NODE":"96.7643","MEAN_MOTION_DDOT":"0.0000000000000","OBJECT_TYPE":"PAYLOAD","EPHEMERIS_TYPE":"0","PERIOD":"95.644","TLE_LINE2":"2 46169  53.0001  96.7643 0001433  92.9769 267.1383 15.05584747 71683","OBJECT_ID":"2020-057BE","INCLINATION":"53.0001","RCS_SIZE":"LARGE","BSTAR":"0.00003978500000","APOAPSIS":"550.706","PERIAPSIS":"548.721","ARG_OF_PERICENTER":"92.9769","CLASSIFICATION_TYPE":"U","OBJECT_NAME":"STARLINK-1628","SEMIMAJOR_AXIS":"6927.848","TIME_SYSTEM":"UTC","TLE_LINE1":"1 46169U 20057BE  21339.80355003  .00000300  00000-0  39785-4 0  9991"},{"COUNTRY_CODE":"US","ECCENTRICITY":"0.00012770","DECAY_DATE":null,"CENTER_NAME":"EARTH","REF_FRAME":"TEME","MEAN_ELEMENT_THEORY":"SGP4","SITE":"AFETR","EPOCH":"2021-12-05T19:11:38.511456","NORAD_CAT_ID":"46171","REV_AT_EPOCH":"7324","GP_ID":"191169633","LAUNCH_DATE":"2020-08-18","MEAN_MOTION_DOT":"0.00001768","ELEMENT_SET_NO":"999","MEAN_MOTION":"15.06392998","MEAN_ANOMALY":"278.1581","TLE_LINE1":"1 46171U 20057BG  21339.79975129  .00001768  00000-0  13756-3 0  9997","TIME_SYSTEM":"UTC","SEMIMAJOR_AXIS":"6925.370","OBJECT_NAME":"STARLINK-1633","ARG_OF_PERICENTER":"81.9553","CLASSIFICATION_TYPE":"U","APOAPSIS":"548.119","PERIAPSIS":"546.351","BSTAR":"0.00013756000000","RCS_SIZE":"LARGE","INCLINATION":"53.0547","TLE_LINE2":"2 46171  53.0547  76.7889 0001277  81.9553 278.1581 15.06392998 73248","OBJECT_ID":"2020-057BG","PERIOD":"95.593","EPHEMERIS_TYPE":"0","OBJECT_TYPE":"PAYLOAD","RA_OF_ASC_NODE":"76.7889","MEAN_MOTION_DDOT":"0.0000000000000","FILE":"3233515"},{"INCLINATION":"53.0559","OBJECT_ID":"2020-057BH","TLE_LINE2":"2 46172  53.0559  77.0296 0001247  72.6383 287.4742 15.06401764 73236","PERIOD":"95.592","RCS_SIZE":"LARGE","RA_OF_ASC_NODE":"77.0296","MEAN_MOTION_DDOT":"0.0000000000000","FILE":"3233515","EPHEMERIS_TYPE":"0","OBJECT_TYPE":"PAYLOAD","SEMIMAJOR_AXIS":"6925.343","TLE_LINE1":"1 46172U 20057BH  21339.74814249  .00000070  00000-0  23585-4 0  9995","TIME_SYSTEM":"UTC","ARG_OF_PERICENTER":"72.6383","CLASSIFICATION_TYPE":"U","PERIAPSIS":"546.345","APOAPSIS":"548.072","BSTAR":"0.00002358500000","OBJECT_NAME":"STARLINK-1635","REV_AT_EPOCH":"7323","GP_ID":"191170384","NORAD_CAT_ID":"46172","MEAN_MOTION":"15.06401764","MEAN_ANOMALY":"287.4742","LAUNCH_DATE":"2020-08-18","ELEMENT_SET_NO":"999","MEAN_MOTION_DOT":"0.00000070","DECAY_DATE":null,"CENTER_NAME":"EARTH","COUNTRY_CODE":"US","ECCENTRICITY":"0.00012470","EPOCH":"2021-12-05T17:57:19.511136","MEAN_ELEMENT_THEORY":"SGP4","REF_FRAME":"TEME","SITE":"AFETR"}];
